IRIDIUM 171             
1 43929U 19002H   25231.76133079  .00000053  00000+0  11809-4 0  9998
2 43929  86.3981 119.8841 0002407  89.4360 270.7112 14.34217779345758
IRIDIUM 170             
1 43930U 19002J   25231.18463081  .00000636  00000+0  96950-4 0  9992
2 43930  86.6100 119.8663 0002357  89.1600 270.9887 14.72260523354822
IRIDIUM 167             
1 43931U 19002K   25231.75498829  .00000018  00000+0 -58874-6 0  9994
2 43931  86.3973 119.6334 0002179  96.6287 263.5156 14.34217444345758
IRIDIUM 181             
1 56726U 23068S   25231.31560855  .00000318  00000+0  88456-4 0  9997
2 56726  86.4566 182.8864 0002905  86.1226 274.0307 14.43315189118890
IRIDIUM 177             
1 56727U 23068T   25231.61661136  .00001007  00000+0  12904-3 0  9995
2 56727  86.1959 112.0299 0002473  91.1458 269.0046 14.80232286121754
IRIDIUM 174             
1 56728U 23068U   25231.71603600  .00000735  00000+0  11273-3 0  9994
2 56728  86.6106 119.7611 0001863  81.9556 278.1873 14.72256284121668
IRIDIUM 178             
1 56729U 23068V   25231.26769241  .00000907  00000+0  11588-3 0  9999
2 56729  86.6576 151.5274 0001915  82.3444 277.7995 14.80237224121705
IRIDIUM 179             
1 56730U 23068W   25231.87075257  .00001175  00000+0  15125-3 0  9994
2 56730  86.6851 159.3354 0002408  91.6734 268.4763 14.80237919121791
